NORAD_CAT_ID,OBJECT_NAME,OBJECT_TYPE,EPOCH,MEAN_MOTION,ECCENTRICITY,INCLINATION,RA_OF_ASC_NODE,ARG_OF_PERICENTER,MEAN_ANOMALY,BSTAR,MEAN_MOTION_DOT,MEAN_MOTION_DDOT,TLE_LINE0,TLE_LINE1,TLE_LINE2,SEMIMAJOR_AXIS,PERIOD,APOGEE,PERIGEE,DECAYED
49418.0,STARLINK-3111,PAYLOAD,2023-12-26 21:09:04,15.08846515,0.0001428,53.216,237.5544,85.9826,274.133,5.1347e-05,5.29e-06,0.0,0 STARLINK-3111,1 49418U 21104L   23360.88129921  .00000529  00000-0  51347-4 0  9998,2 49418  53.2160 237.5544 0001428  85.9826 274.1330 15.08846515117279,6917.86,95.437,540.713,538.738,0.0
49418.0,STARLINK-3111,PAYLOAD,2023-12-27 19:24:28,15.08841283,0.0001419,53.2154,233.3917,93.668,266.4475,0.00011957,1.616e-05,0.0,0 STARLINK-3111,1 49418U 21104L   23361.80866168  .00001616  00000-0  11957-3 0  9992,2 49418  53.2154 233.3917 0001419  93.6680 266.4475 15.08841283118524,6917.876,95.437,540.723,538.76,0.0
49418.0,STARLINK-3111,PAYLOAD,2023-12-27 22:35:14,15.0884075,0.0001365,53.2152,232.7972,80.584,279.5306,8.708e-05,1.098e-05,0.0,0 STARLINK-3111,1 49418U 21104L   23361.94114189  .00001098  00000-0  87080-4 0  9991,2 49418  53.2152 232.7972 0001365  80.5840 279.5306 15.08840750117434,6917.878,95.438,540.687,538.799,0.0
49418.0,STARLINK-3111,PAYLOAD,2023-12-28 14:29:06,15.0883963,0.0001345,53.2155,229.8281,87.0024,273.1122,4.209e-05,3.82e-06,0.0,0 STARLINK-3111,1 49418U 21104L   23362.60354206  .00000382  00000-0  42090-4 0  9998,2 49418  53.2155 229.8281 0001345  87.0024 273.1122 15.08839630117533,6917.882,95.438,540.677,538.816,0.0
49418.0,STARLINK-3111,PAYLOAD,2023-12-28 20:50:38,15.08845706,0.0001319,53.2168,228.6382,101.8206,258.2934,-5.234e-05,-1.121e-05,0.0,0 STARLINK-3111,1 49418U 21104L   23362.86850289 -.00001121  00000-0 -52340-4 0  9991,2 49418  53.2168 228.6382 0001319 101.8206 258.2934 15.08845706117574,6917.863,95.437,540.64,538.815,0.0
49418.0,STARLINK-3111,PAYLOAD,2023-12-29 00:01:24,15.08847882,0.0001359,53.217,228.0432,99.4296,260.685,-3.0526e-05,-7.74e-06,0.0,0 STARLINK-3111,1 49418U 21104L   23363.00098042 -.00000774  00000-0 -30526-4 0  9994,2 49418  53.2170 228.0432 0001359  99.4296 260.6850 15.08847882118709,6917.856,95.437,540.661,538.781,0.0
49418.0,STARLINK-3111,PAYLOAD,2023-12-29 19:06:02,15.08835976,0.0001342,53.2176,224.4754,100.5154,259.5989,5.4556e-05,5.8e-06,0.0,0 STARLINK-3111,1 49418U 21104L   23363.79586744  .00000580  00000-0  54556-4 0  9993,2 49418  53.2176 224.4754 0001342 100.5154 259.5989 15.08835976118825,6917.893,95.438,540.686,538.829,0.0
49418.0,STARLINK-3111,PAYLOAD,2023-12-29 22:16:49,15.08841124,0.0001481,53.217,223.8806,93.4032,266.713,1.4026e-05,-6.5e-07,0.0,0 STARLINK-3111,1 49418U 21104L   23363.92834528 -.00000065  00000-0  14026-4 0  9991,2 49418  53.2170 223.8806 0001481  93.4032 266.7130 15.08841124117738,6917.877,95.437,540.766,538.717,0.0
49418.0,STARLINK-3111,PAYLOAD,2023-12-30 22:07:36,15.08840346,0.0001242,53.2165,219.419,83.4087,276.7047,6.1432e-05,6.9e-06,0.0,0 STARLINK-3111,1 49418U 21104L   23364.92194611  .00000690  00000-0  61432-4 0  9990,2 49418  53.2165 219.4190 0001242  83.4087 276.7047 15.08840346117882,6917.879,95.438,540.604,538.885,0.0
49418.0,STARLINK-3111,PAYLOAD,2023-12-31 21:58:23,15.08840169,0.0001308,53.2162,214.9586,79.6249,280.4891,6.5749e-05,7.59e-06,0.0,0 STARLINK-3111,1 49418U 21104L   23365.91554790  .00000759  00000-0  65749-4 0  9999,2 49418  53.2162 214.9586 0001308  79.6249 280.4891 15.08840169118038,6917.88,95.438,540.65,538.84,0.0
49418.0,STARLINK-3111,PAYLOAD,2024-01-01 13:52:14,15.08843527,0.0001208,53.2161,211.9841,91.1473,268.9657,0.00010029,1.309e-05,0.0,0 STARLINK-3111,1 49418U 21104L   24001.57794368  .00001309  00000-0  10029-3 0  9998,2 49418  53.2161 211.9841 0001208  91.1473 268.9657 15.08843527118138,6917.87,95.437,540.57,538.899,0.0
49418.0,STARLINK-3111,PAYLOAD,2024-01-01 20:13:46,15.08847528,0.0001303,53.2159,210.7954,81.3788,278.7352,0.00010828,1.436e-05,0.0,0 STARLINK-3111,1 49418U 21104L   24001.84290087  .00001436  00000-0  10828-3 0  9995,2 49418  53.2159 210.7954 0001303  81.3788 278.7352 15.08847528119286,6917.857,95.437,540.624,538.821,0.0
49418.0,STARLINK-3111,PAYLOAD,2024-01-01 23:24:32,15.08849471,0.0001285,53.2159,210.2004,84.011,276.1029,0.00012167,1.649e-05,0.0,0 STARLINK-3111,1 49418U 21104L   24001.97537865  .00001649  00000-0  12167-3 0  9991,2 49418  53.2159 210.2004 0001285  84.0110 276.1029 15.08849471118196,6917.851,95.437,540.605,538.827,0.0
49418.0,STARLINK-3111,PAYLOAD,2024-01-02 20:04:33,15.08842064,9.74e-05,53.2151,206.3335,77.5194,282.5907,1.1475e-05,-1.05e-06,0.0,0 STARLINK-3111,1 49418U 21104L   24002.83650445 -.00000105  00000-0  11475-4 0  9996,2 49418  53.2151 206.3335 0000974  77.5194 282.5907 15.08842064119439,6917.874,95.437,540.413,539.065,0.0
49418.0,STARLINK-3111,PAYLOAD,2024-01-03 13:33:48,15.08841324,0.0001419,53.2156,203.062,101.6332,258.4819,-1.9527e-05,-5.99e-06,0.0,0 STARLINK-3111,1 49418U 21104L   24003.56514485 -.00000599  00000-0 -19527-4 0  9994,2 49418  53.2156 203.0620 0001419 101.6332 258.4819 15.08841324118434,6917.876,95.437,540.723,538.76,0.0
49418.0,STARLINK-3111,PAYLOAD,2024-01-03 19:55:21,15.08841297,0.0001397,53.2158,201.8727,101.7355,258.3794,-2.3691e-05,-6.65e-06,0.0,0 STARLINK-3111,1 49418U 21104L   24003.83010432 -.00000665  00000-0 -23691-4 0  9998,2 49418  53.2158 201.8727 0001397 101.7355 258.3794 15.08841297118475,6917.876,95.437,540.708,538.775,0.0
49418.0,STARLINK-3111,PAYLOAD,2024-01-04 11:49:12,15.08838578,0.0001321,53.2157,198.8992,94.5569,265.5574,3.8623e-05,3.27e-06,0.0,0 STARLINK-3111,1 49418U 21104L   24004.49250427  .00000327  00000-0  38623-4 0  9995,2 49418  53.2157 198.8992 0001321  94.5569 265.5574 15.08838578119684,6917.885,95.438,540.664,538.836,0.0
49418.0,STARLINK-3111,PAYLOAD,2024-01-04 19:46:07,15.0883967,0.0001352,53.2158,197.4122,96.3582,263.7564,6.0266e-05,6.71e-06,0.0,0 STARLINK-3111,1 49418U 21104L   24004.82370296  .00000671  00000-0  60266-4 0  9999,2 49418  53.2158 197.4122 0001352  96.3582 263.7564 15.08839670118620,6917.881,95.438,540.682,538.811,0.0
49418.0,STARLINK-3111,PAYLOAD,2024-01-05 11:39:59,15.08834591,0.0001388,53.2161,194.4394,96.6857,263.4293,2.2976e-05,7.8e-07,0.0,0 STARLINK-3111,1 49418U 21104L   24005.48610902  .00000078  00000-0  22976-4 0  9990,2 49418  53.2161 194.4394 0001388  96.6857 263.4293 15.08834591118723,6917.897,95.438,540.722,538.802,0.0
49418.0,STARLINK-3111,PAYLOAD,2024-01-05 18:01:32,15.08832469,0.0001382,53.2163,193.2493,97.1385,262.9764,-5.0865e-07,-2.96e-06,0.0,0 STARLINK-3111,1 49418U 21104L   24005.75107220 -.00000296  00000-0 -50865-6 0  9998,2 49418  53.2163 193.2493 0001382  97.1385 262.9764 15.08832469119874,6917.903,95.438,540.724,538.812,0.0
49418.0,STARLINK-3111,PAYLOAD,2024-01-06 19:27:42,15.0883833,0.0001379,53.2163,188.4912,94.5879,265.5271,2.9898e-05,1.88e-06,0.0,0 STARLINK-3111,1 49418U 21104L   24006.81091089  .00000188  00000-0  29898-4 0  9999,2 49418  53.2163 188.4912 0001379  94.5879 265.5271 15.08838330120036,6917.885,95.438,540.704,538.797,0.0
49418.0,STARLINK-3111,PAYLOAD,2024-01-07 19:18:29,15.08842734,0.0001344,53.2166,184.0303,87.055,273.0595,0.00011767,1.585e-05,0.0,0 STARLINK-3111,1 49418U 21104L   24007.80450657  .00001585  00000-0  11767-3 0  9996,2 49418  53.2166 184.0303 0001344  87.0550 273.0595 15.08842734119078,6917.872,95.437,540.667,538.807,0.0
49418.0,STARLINK-3111,PAYLOAD,2024-01-08 11:12:21,15.08840281,0.000139,53.2166,181.0614,85.4837,274.6314,3.3473e-05,2.45e-06,0.0,0 STARLINK-3111,1 49418U 21104L   24008.46691157  .00000245  00000-0  33473-4 0  9992,2 49418  53.2166 181.0614 0001390  85.4837 274.6314 15.08840281120287,6917.88,95.438,540.706,538.783,0.0
49418.0,STARLINK-3111,PAYLOAD,2024-01-08 17:33:53,15.0883772,0.0001437,53.2167,179.8693,81.5047,278.6108,1.3543e-05,-7.2e-07,0.0,0 STARLINK-3111,1 49418U 21104L   24008.73187458 -.00000072  00000-0  13543-4 0  9991,2 49418  53.2167 179.8693 0001437  81.5047 278.6108 15.08837720119212,6917.887,95.438,540.746,538.758,0.0
49418.0,STARLINK-3111,PAYLOAD,2024-01-09 11:03:07,15.08843974,0.0001579,53.2174,176.5984,76.0663,284.0505,5.7623e-05,6.29e-06,0.0,0 STARLINK-3111,1 49418U 21104L   24009.46050862  .00000629  00000-0  57623-4 0  9994,2 49418  53.2174 176.5984 0001579  76.0663 284.0505 15.08843974119329,6917.868,95.437,540.826,538.641,0.0
49418.0,STARLINK-3111,PAYLOAD,2024-01-09 17:24:40,15.08847749,0.0001683,53.2176,175.4098,72.0154,288.1022,8.8413e-05,1.12e-05,0.0,0 STARLINK-3111,1 49418U 21104L   24009.72546519  .00001120  00000-0  88413-4 0  9990,2 49418  53.2176 175.4098 0001683  72.0154 288.1022 15.08847749120473,6917.857,95.437,540.886,538.557,0.0
49418.0,STARLINK-3111,PAYLOAD,2024-01-10 10:53:55,15.08839557,0.0001756,53.2181,172.1395,74.7885,285.3302,5.6309e-05,6.08e-06,0.0,0 STARLINK-3111,1 49418U 21104L   24010.45411041  .00000608  00000-0  56309-4 0  9992,2 49418  53.2181 172.1395 0001756  74.7885 285.3302 15.08839557120584,6917.882,95.438,540.962,538.532,0.0
49418.0,STARLINK-3111,PAYLOAD,2024-01-11 13:55:28,15.08840962,0.0001623,53.2179,167.0844,105.4849,254.6323,-2.0098e-06,-3.2e-06,0.0,0 STARLINK-3111,1 49418U 21104L   24011.58019009 -.00000320  00000-0 -20098-5 0  9995,2 49418  53.2179 167.0844 0001623 105.4849 254.6323 15.08840962119647,6917.877,95.437,540.865,538.62,0.0
49418.0,STARLINK-3111,PAYLOAD,2024-01-11 17:06:14,15.08841418,0.0001457,53.2171,166.4894,100.6485,259.4671,-1.4472e-06,-3.11e-06,0.0,0 STARLINK-3111,1 49418U 21104L   24011.71266964 -.00000311  00000-0 -14472-5 0  9993,2 49418  53.2171 166.4894 0001457 100.6485 259.4671 15.08841418120777,6917.876,95.437,540.749,538.733,0.0
49418.0,STARLINK-3111,PAYLOAD,2024-01-11 20:17:00,15.08845231,0.0001362,53.2161,165.8904,93.8435,266.2713,-2.1298e-05,-6.27e-06,0.0,0 STARLINK-3111,1 49418U 21104L   24011.84514759 -.00000627  00000-0 -21298-4 0  9998,2 49418  53.2161 165.8904 0001362  93.8435 266.2713 15.08845231119682,6917.864,95.437,540.672,538.787,0.0
